NORAD_CAT_ID,OBJECT_NAME,OBJECT_TYPE,EPOCH,MEAN_MOTION,ECCENTRICITY,INCLINATION,RA_OF_ASC_NODE,ARG_OF_PERICENTER,MEAN_ANOMALY,BSTAR,MEAN_MOTION_DOT,MEAN_MOTION_DDOT,TLE_LINE0,TLE_LINE1,TLE_LINE2,SEMIMAJOR_AXIS,PERIOD,APOGEE,PERIGEE,DECAYED
55435.0,STARLINK-5626,PAYLOAD,2023-02-20 14:00:01,15.55461544,0.0003327,69.9995,33.9468,268.5524,52.3987,-0.02007,-0.01230488,0.0,0 STARLINK-5626,1 55435U 23014AW  23051.58334491 -.01230488  00000-0 -20070-1 0  9998,2 55435  69.9995  33.9468 0003327 268.5524  52.3987 15.55461544  1309,6778.948,92.577,403.069,398.558,0.0
55435.0,STARLINK-5626,PAYLOAD,2023-02-20 22:00:01,15.54606954,0.0003455,69.9999,33.0305,267.7001,118.7532,-0.02044,-0.01215953,0.0,0 STARLINK-5626,1 55435U 23014AW  23051.91668981 -.01215953  00000-0 -20440-1 0  9990,2 55435  69.9999  33.0305 0003455 267.7001 118.7532 15.54606954  3374,6781.432,92.628,405.64,400.954,0.0
55435.0,STARLINK-5626,PAYLOAD,2023-02-21 14:00:01,15.52877572,0.0003195,69.9997,31.2005,271.5989,242.6026,-0.021794,-0.01235795,0.0,0 STARLINK-5626,1 55435U 23014AW  23052.58334491 -.01235795  00000-0 -21794-1 0  9999,2 55435  69.9997  31.2005 0003195 271.5989 242.6026 15.52877572  1308,6786.466,92.731,410.5,406.163,0.0
55435.0,STARLINK-5626,PAYLOAD,2023-02-22 00:00:00,15.51695637,0.0003356,70.0005,30.0595,266.211,55.7826,-0.014292,-0.00785619,0.0,0 STARLINK-5626,1 55435U 23014AW  23053.00001157 -.00785619  00000-0 -14292-1 0  9996,2 55435  70.0005  30.0595 0003356 266.2110  55.7826 15.51695637  1308,6789.912,92.802,414.056,409.498,0.0
55435.0,STARLINK-5626,PAYLOAD,2023-02-22 06:00:00,15.51379816,0.0003426,70.0004,29.3759,272.0573,5.8294,-0.020047,-0.01074616,0.0,0 STARLINK-5626,1 55435U 23014AW  23053.25001157 -.01074616  00000-0 -20047-1 0  9997,2 55435  70.0004  29.3759 0003426 272.0573   5.8294 15.51379816  3581,6790.834,92.821,415.025,410.372,0.0
55435.0,STARLINK-5626,PAYLOAD,2023-02-22 14:00:01,15.50556762,0.000343,70.0,28.4647,270.916,67.6173,-0.021186,-0.01100104,0.0,0 STARLINK-5626,1 55435U 23014AW  23053.58334491 -.01100104  00000-0 -21186-1 0  9990,2 55435  70.0000  28.4647 0003430 270.9160  67.6173 15.50556762  3631,6793.236,92.87,417.431,412.771,0.0
55435.0,STARLINK-5626,PAYLOAD,2023-02-22 22:00:00,15.49656619,0.0003367,70.0004,27.555,268.1865,129.9636,-0.00085733,-0.0004752,0.0,0 STARLINK-5626,1 55435U 23014AW  23053.91667824 -.00047520  00000-0 -85733-3 0  9997,2 55435  70.0004  27.5550 0003367 268.1865 129.9636 15.49656619  3689,6795.867,92.924,420.02,415.444,0.0
55435.0,STARLINK-5626,PAYLOAD,2023-02-23 14:00:01,15.49644145,0.0003252,70.0003,25.7366,270.2661,245.8802,-0.0015099,-0.00083155,0.0,0 STARLINK-5626,1 55435U 23014AW  23054.58334491 -.00083155  00000-0 -15099-2 0  9993,2 55435  70.0003  25.7366 0003252 270.2661 245.8802 15.49644145  3789,6795.903,92.925,419.978,415.558,0.0
55435.0,STARLINK-5626,PAYLOAD,2023-02-23 22:00:00,15.49622103,0.0003273,70.0006,24.8278,264.1156,311.0083,0.00012062,6.539e-05,0.0,0 STARLINK-5626,1 55435U 23014AW  23054.91667824  .00006539  00000-0  12062-3 0  9996,2 55435  70.0006  24.8278 0003273 264.1156 311.0083 15.49622103  3842,6795.968,92.926,420.057,415.608,0.0
55435.0,STARLINK-5626,PAYLOAD,2023-02-24 14:00:01,15.49795337,0.0003443,70.0001,23.0092,269.3468,63.7303,-0.022853,-0.01149605,0.0,0 STARLINK-5626,1 55435U 23014AW  23055.58334491 -.01149605  00000-0 -22853-1 0  9993,2 55435  70.0001  23.0092 0003443 269.3468  63.7303 15.49795337  3941,6795.461,92.915,419.666,414.987,0.0
55435.0,STARLINK-5626,PAYLOAD,2023-02-24 22:00:00,15.48994065,0.0003493,70.0007,22.1007,268.0121,123.7508,-0.025229,-0.01244339,0.0,0 STARLINK-5626,1 55435U 23014AW  23055.91667824 -.01244339  00000-0 -25229-1 0  9999,2 55435  70.0007  22.1007 0003493 268.0121 123.7508 15.48994065  1300,6797.805,92.964,422.044,417.295,0.0
55435.0,STARLINK-5626,PAYLOAD,2023-02-25 06:00:00,15.48079079,0.00035,70.0007,21.193,276.868,172.593,-0.024293,-0.01167347,0.0,0 STARLINK-5626,1 55435U 23014AW  23056.25001157 -.01167347  00000-0 -24293-1 0  9991,2 55435  70.0007  21.1930 0003500 276.8680 172.5930 15.48079079  4044,6800.483,93.019,424.728,419.968,0.0
55435.0,STARLINK-5626,PAYLOAD,2023-02-25 14:00:01,15.472397,0.0003402,70.0001,20.2863,272.0011,234.0984,-0.025862,-0.01203379,0.0,0 STARLINK-5626,1 55435U 23014AW  23056.58334491 -.01203379  00000-0 -25862-1 0  9996,2 55435  70.0001  20.2863 0003402 272.0011 234.0984 15.47239700  1307,6802.942,93.069,427.121,422.493,0.0
55435.0,STARLINK-5626,PAYLOAD,2023-02-25 22:00:00,15.46408506,0.0003336,70.0005,19.3812,265.7626,295.9388,-0.027322,-0.01232294,0.0,0 STARLINK-5626,1 55435U 23014AW  23056.91667824 -.01232294  00000-0 -27322-1 0  9993,2 55435  70.0005  19.3812 0003336 265.7626 295.9388 15.46408506  4152,6805.38,93.119,429.515,424.974,0.0
55435.0,STARLINK-5626,PAYLOAD,2023-02-26 14:00:01,15.44664849,0.0003432,70.0,17.5738,270.7461,39.1101,-0.028487,-0.01212039,0.0,0 STARLINK-5626,1 55435U 23014AW  23057.58334491 -.01212039  00000-0 -28487-1 0  9996,2 55435  70.0000  17.5738 0003432 270.7461  39.1101 15.44664849  1301,6810.5,93.224,434.702,430.028,0.0
55435.0,STARLINK-5626,PAYLOAD,2023-02-27 00:00:00,15.43621815,0.0003461,70.0002,16.4469,272.1365,193.2033,-0.030736,-0.0125749,0.0,0 STARLINK-5626,1 55435U 23014AW  23058.00001157 -.01257490  00000-0 -30736-1 0  9994,2 55435  70.0002  16.4469 0003461 272.1365 193.2033 15.43621815  1304,6813.568,93.287,437.791,433.074,0.0
55435.0,STARLINK-5626,PAYLOAD,2023-02-27 06:00:00,15.42916001,0.0003442,70.0001,15.7715,276.0883,137.7906,-0.028324,-0.01141973,0.0,0 STARLINK-5626,1 55435U 23014AW  23058.25001157 -.01141973  00000-0 -28324-1 0  9999,2 55435  70.0001  15.7715 0003442 276.0883 137.7906 15.42916001  4359,6815.645,93.33,439.856,435.164,0.0
55435.0,STARLINK-5626,PAYLOAD,2023-02-27 14:00:01,15.42080355,0.0003293,69.9999,14.8721,273.0721,191.27,-0.030664,-0.01196699,0.0,0 STARLINK-5626,1 55435U 23014AW  23058.58334491 -.01196699  00000-0 -30664-1 0  9990,2 55435  69.9999  14.8721 0003293 273.0721 191.2700 15.42080355  4408,6818.107,93.38,442.218,437.727,0.0
55435.0,STARLINK-5626,PAYLOAD,2023-02-27 22:00:01,15.41269639,0.0003206,70.0004,13.9737,269.2603,244.5597,-0.033324,-0.0125925,0.0,0 STARLINK-5626,1 55435U 23014AW  23058.91668981 -.01259250  00000-0 -33324-1 0  9990,2 55435  70.0004  13.9737 0003206 269.2603 244.5597 15.41269639  1300,6820.498,93.429,444.55,440.176,0.0
55435.0,STARLINK-5626,PAYLOAD,2023-02-28 14:00:01,15.3949646,0.0003264,69.9998,12.1803,268.8168,340.7413,-0.033011,-0.01183386,0.0,0 STARLINK-5626,1 55435U 23014AW  23059.58334491 -.01183386  00000-0 -33011-1 0  9999,2 55435  69.9998  12.1803 0003264 268.8168 340.7413 15.39496460  4567,6825.734,93.537,449.827,445.371,0.0
55435.0,STARLINK-5626,PAYLOAD,2023-02-28 22:00:00,15.38694224,0.0003337,70.0002,11.2855,264.8907,30.9886,-0.036296,-0.01259447,0.0,0 STARLINK-5626,1 55435U 23014AW  23059.91667824 -.01259447  00000-0 -36296-1 0  9995,2 55435  70.0002  11.2855 0003337 264.8907  30.9886 15.38694224  1309,6828.107,93.586,452.25,447.693,0.0
55435.0,STARLINK-5626,PAYLOAD,2023-03-01 06:00:00,15.37777583,0.000337,70.0001,10.3917,271.7578,69.454,-0.034296,-0.01163917,0.0,0 STARLINK-5626,1 55435U 23014AW  23060.25001157 -.01163917  00000-0 -34296-1 0  9999,2 55435  70.0001  10.3917 0003370 271.7578  69.4540 15.37777583  4660,6830.82,93.642,454.987,450.383,0.0
55435.0,STARLINK-5626,PAYLOAD,2023-03-01 22:00:00,15.36114924,0.0003316,70.0002,8.6077,270.6005,158.1345,-0.039434,-0.01258229,0.0,0 STARLINK-5626,1 55435U 23014AW  23060.91667824 -.01258229  00000-0 -39434-1 0  9991,2 55435  70.0002   8.6077 0003316 270.6005 158.1345 15.36114924  4764,6835.748,93.743,459.88,455.346,0.0
55435.0,STARLINK-5626,PAYLOAD,2023-03-02 20:00:01,15.33741204,0.0003258,70.0002,6.1624,269.0748,183.3021,-0.041547,-0.01231288,0.0,0 STARLINK-5626,1 55435U 23014AW  23061.83334491 -.01231288  00000-0 -41547-1 0  9998,2 55435  70.0002   6.1624 0003258 269.0748 183.3021 15.33741204  4907,6842.799,93.888,466.893,462.435,0.0
55435.0,STARLINK-5626,PAYLOAD,2023-03-03 14:00:01,15.3175374,0.0003151,70.0003,4.1683,265.9652,3.617,-0.041189,-0.0115374,0.0,0 STARLINK-5626,1 55435U 23014AW  23062.58334491 -.01153740  00000-0 -41189-1 0  9999,2 55435  70.0003   4.1683 0003151 265.9652   3.6170 15.31753740  1308,6848.717,94.01,472.74,468.424,0.0
55435.0,STARLINK-5626,PAYLOAD,2023-03-03 22:00:00,15.30954823,0.0003336,70.0004,3.284,266.3699,40.2683,-0.046008,-0.01265106,0.0,0 STARLINK-5626,1 55435U 23014AW  23062.91667824 -.01265106  00000-0 -46008-1 0  9990,2 55435  70.0004   3.2840 0003336 266.3699  40.2683 15.30954823  5073,6851.099,94.059,475.25,470.679,0.0
55435.0,STARLINK-5626,PAYLOAD,2023-03-04 14:00:01,15.29171687,0.0003257,70.0004,1.5187,267.4306,110.2871,-0.044215,-0.01143831,0.0,0 STARLINK-5626,1 55435U 23014AW  23063.58334491 -.01143831  00000-0 -44215-1 0  9993,2 55435  70.0004   1.5187 0003257 267.4306 110.2871 15.29171687  5172,6856.424,94.169,480.522,476.056,0.0
55435.0,STARLINK-5626,PAYLOAD,2023-03-04 22:00:00,15.28377284,0.0003306,70.0007,0.6381,269.9156,141.7655,-0.049834,-0.01265199,0.0,0 STARLINK-5626,1 55435U 23014AW  23063.91667824 -.01265199  00000-0 -49834-1 0  9993,2 55435  70.0007   0.6381 0003306 269.9156 141.7655 15.28377284  1306,6858.8,94.218,482.932,478.397,0.0
55435.0,STARLINK-5626,PAYLOAD,2023-03-05 04:00:01,15.27686031,0.0003278,70.0006,359.9782,273.7926,72.7777,-0.04732,-0.01167239,0.0,0 STARLINK-5626,1 55435U 23014AW  23064.16668981 -.01167239  00000-0 -47320-1 0  9990,2 55435  70.0006 359.9782 0003278 273.7926  72.7777 15.27686031  5265,6860.869,94.26,484.983,480.485,0.0
55435.0,STARLINK-5626,PAYLOAD,2023-03-05 14:00:01,15.26592551,0.0003072,70.0007,358.8796,269.5665,207.0139,-0.047481,-0.01135715,0.0,0 STARLINK-5626,1 55435U 23014AW  23064.58334491 -.01135715  00000-0 -47481-1 0  9994,2 55435  70.0007 358.8796 0003072 269.5665 207.0139 15.26592551  1302,6864.144,94.328,488.118,483.901,0.0
